[{"OBJECT_ID":"2018-079AP","OBJECT_NAME":"ATLAS 5 CENTAUR DEB","NORAD_CAT_ID":"44677","OBJECT_TYPE":"DEBRIS","PERIOD":"806.207","INCLINATION":"11.0629","ECCENTRICITY":"0.44037270","MEAN_MOTION":"1.78614188","TLE_LINE1":"1 44677U 18079AP  21271.14514990 -.00000129  00000-0  00000-0 0  9992","TLE_LINE2":"2 44677  11.0629 205.4629 4403727 351.9960   2.7525  1.78614188 15008"},{"OBJECT_ID":"2018-079AQ","OBJECT_NAME":"ATLAS 5 CENTAUR DEB","NORAD_CAT_ID":"44678","OBJECT_TYPE":"DEBRIS","PERIOD":"790.200","INCLINATION":"11.1733","ECCENTRICITY":"0.46153980","MEAN_MOTION":"1.82232446","TLE_LINE1":"1 44678U 18079AQ  21271.32399102 -.00000153  00000-0  00000+0 0  9995","TLE_LINE2":"2 44678  11.1733 194.9322 4615398  11.8554 356.0672  1.82232446 19660"},{"OBJECT_ID":"2018-079AR","OBJECT_NAME":"ATLAS 5 CENTAUR DEB","NORAD_CAT_ID":"44679","OBJECT_TYPE":"DEBRIS","PERIOD":"802.665","INCLINATION":"11.2012","ECCENTRICITY":"0.46657940","MEAN_MOTION":"1.79402369","TLE_LINE1":"1 44679U 18079AR  21271.11630862 -.00000128  00000-0  00000-0 0  9997","TLE_LINE2":"2 44679  11.2012 196.4194 4665794   8.0446 357.3661  1.79402369 15756"},{"OBJECT_ID":"2018-079AS","OBJECT_NAME":"ATLAS 5 CENTAUR DEB","NORAD_CAT_ID":"44680","OBJECT_TYPE":"DEBRIS","PERIOD":"820.093","INCLINATION":"11.1136","ECCENTRICITY":"0.46635490","MEAN_MOTION":"1.75589944","TLE_LINE1":"1 44680U 18079AS  21271.98087591 -.00000137  00000-0  00000+0 0  9998","TLE_LINE2":"2 44680  11.1136 200.8148 4663549 358.9180   0.3033  1.75589944 15211"},{"OBJECT_ID":"2018-079AT","OBJECT_NAME":"ATLAS 5 CENTAUR DEB","NORAD_CAT_ID":"44681","OBJECT_TYPE":"DEBRIS","PERIOD":"836.065","INCLINATION":"11.0046","ECCENTRICITY":"0.47630030","MEAN_MOTION":"1.72235356","TLE_LINE1":"1 44681U 18079AT  21260.24965812 -.00000189  00000-0  00000-0 0  9995","TLE_LINE2":"2 44681  11.0046 211.0975 4763003 343.6627   4.9746  1.72235356 14375"},{"OBJECT_ID":"2018-079AU","OBJECT_NAME":"ATLAS 5 CENTAUR DEB","NORAD_CAT_ID":"44682","OBJECT_TYPE":"DEBRIS","PERIOD":"791.531","INCLINATION":"11.1956","ECCENTRICITY":"0.46138760","MEAN_MOTION":"1.81925823","TLE_LINE1":"1 44682U 18079AU  21271.19920236 -.00000154  00000-0  00000-0 0  9995","TLE_LINE2":"2 44682  11.1956 195.7780 4613876  10.6741 356.4554  1.81925823 15502"},{"OBJECT_ID":"2018-079AV","OBJECT_NAME":"ATLAS 5 CENTAUR DEB","NORAD_CAT_ID":"44683","OBJECT_TYPE":"DEBRIS","PERIOD":"785.817","INCLINATION":"11.1424","ECCENTRICITY":"0.46904660","MEAN_MOTION":"1.83248672","TLE_LINE1":"1 44683U 18079AV  21271.21198621 -.00000148  00000-0  00000-0 0  9997","TLE_LINE2":"2 44683  11.1424 195.3372 4690466  14.6742 355.2358  1.83248672 19742"},{"OBJECT_ID":"2018-079AW","OBJECT_NAME":"ATLAS 5 CENTAUR DEB","NORAD_CAT_ID":"44684","OBJECT_TYPE":"DEBRIS","PERIOD":"786.345","INCLINATION":"11.1556","ECCENTRICITY":"0.46384160","MEAN_MOTION":"1.83125671","TLE_LINE1":"1 44684U 18079AW  21271.27031489 -.00000151  00000-0  00000-0 0  9996","TLE_LINE2":"2 44684  11.1556 196.9301 4638416  11.5793 356.1789  1.83125671 15508"},{"OBJECT_ID":"2018-079AX","OBJECT_NAME":"ATLAS 5 CENTAUR DEB","NORAD_CAT_ID":"44685","OBJECT_TYPE":"DEBRIS","PERIOD":"850.576","INCLINATION":"10.8115","ECCENTRICITY":"0.45831540","MEAN_MOTION":"1.69296957","TLE_LINE1":"1 44685U 18079AX  21271.98859743 -.00000148  00000-0  00000+0 0  9991","TLE_LINE2":"2 44685  10.8115 216.6832 4583154 333.5708   8.8600  1.69296957 14339"},{"OBJECT_ID":"2018-079AY","OBJECT_NAME":"ATLAS 5 CENTAUR DEB","NORAD_CAT_ID":"44686","OBJECT_TYPE":"DEBRIS","PERIOD":"851.559","INCLINATION":"10.8083","ECCENTRICITY":"0.46144030","MEAN_MOTION":"1.69101598","TLE_LINE1":"1 44686U 18079AY  21271.86684877 -.00000149  00000-0  00000+0 0  9994","TLE_LINE2":"2 44686  10.8083 216.9561 4614403 333.5586   8.7778  1.69101598 14445"},{"OBJECT_ID":"2018-079AZ","OBJECT_NAME":"ATLAS 5 CENTAUR DEB","NORAD_CAT_ID":"44687","OBJECT_TYPE":"DEBRIS","PERIOD":"790.387","INCLINATION":"11.1169","ECCENTRICITY":"0.46100920","MEAN_MOTION":"1.82189241","TLE_LINE1":"1 44687U 18079AZ  21270.98957501 -.00000152  00000-0  00000-0 0  9999","TLE_LINE2":"2 44687  11.1169 198.3839 4610092   8.4506 357.1799  1.82189241 14750"},{"OBJECT_ID":"2018-079BA","OBJECT_NAME":"ATLAS 5 CENTAUR DEB","NORAD_CAT_ID":"44688","OBJECT_TYPE":"DEBRIS","PERIOD":"805.445","INCLINATION":"11.2584","ECCENTRICITY":"0.46459940","MEAN_MOTION":"1.78783082","TLE_LINE1":"1 44688U 18079BA  21269.20697780 -.00000130  00000-0  00000+0 0  9998","TLE_LINE2":"2 44688  11.2584 196.0800 4645994   6.8104 357.7520  1.78783082 16153"},{"OBJECT_ID":"2018-079BB","OBJECT_NAME":"ATLAS 5 CENTAUR DEB","NORAD_CAT_ID":"44689","OBJECT_TYPE":"DEBRIS","PERIOD":"675.036","INCLINATION":"11.2156","ECCENTRICITY":"0.48560580","MEAN_MOTION":"2.13321804","TLE_LINE1":"1 44689U 18079BB  21270.14491082 -.00000036  00000-0  00000-0 0  9997","TLE_LINE2":"2 44689  11.2156 167.8331 4856058  87.7319 324.8376  2.13321804 16508"},{"OBJECT_ID":"2018-079BC","OBJECT_NAME":"ATLAS 5 CENTAUR DEB","NORAD_CAT_ID":"44690","OBJECT_TYPE":"DEBRIS","PERIOD":"763.596","INCLINATION":"11.0872","ECCENTRICITY":"0.44235720","MEAN_MOTION":"1.88581343","TLE_LINE1":"1 44690U 18079BC  21271.37998008 -.00000139  00000-0  00000+0 0  9998","TLE_LINE2":"2 44690  11.0872 200.9582 4423572   9.8455 356.5215  1.88581343 14618"},{"OBJECT_ID":"2018-079BD","OBJECT_NAME":"ATLAS 5 CENTAUR DEB","NORAD_CAT_ID":"44691","OBJECT_TYPE":"DEBRIS","PERIOD":"814.416","INCLINATION":"11.1244","ECCENTRICITY":"0.44456720","MEAN_MOTION":"1.76813871","TLE_LINE1":"1 44691U 18079BD  21271.35262280 -.00000132  00000-0  00000+0 0  9996","TLE_LINE2":"2 44691  11.1244 202.9401 4445672 353.2069   2.3048  1.76813871 13718"},{"OBJECT_ID":"2018-079BE","OBJECT_NAME":"ATLAS 5 CENTAUR DEB","NORAD_CAT_ID":"44692","OBJECT_TYPE":"DEBRIS","PERIOD":"839.099","INCLINATION":"10.9575","ECCENTRICITY":"0.46120230","MEAN_MOTION":"1.71612595","TLE_LINE1":"1 44692U 18079BE  21271.96055971 -.00000147  00000-0  00000+0 0  9997","TLE_LINE2":"2 44692  10.9575 222.8413 4612023 331.2281   9.5865  1.71612595 13806"},{"OBJECT_ID":"2018-079BF","OBJECT_NAME":"ATLAS 5 CENTAUR DEB","NORAD_CAT_ID":"44693","OBJECT_TYPE":"DEBRIS","PERIOD":"806.885","INCLINATION":"11.2461","ECCENTRICITY":"0.46568590","MEAN_MOTION":"1.78464100","TLE_LINE1":"1 44693U 18079BF  21271.95464226 -.00000130  00000-0  00000+0 0  9996","TLE_LINE2":"2 44693  11.2461 196.0589 4656859   6.9289 357.7214  1.78464100 16151"},{"OBJECT_ID":"2018-079BG","OBJECT_NAME":"ATLAS 5 CENTAUR DEB","NORAD_CAT_ID":"44694","OBJECT_TYPE":"DEBRIS","PERIOD":"811.643","INCLINATION":"11.3215","ECCENTRICITY":"0.47278170","MEAN_MOTION":"1.77417929","TLE_LINE1":"1 44694U 18079BG  21271.13733783 -.00000133  00000-0  00000+0 0  9997","TLE_LINE2":"2 44694  11.3215 194.4663 4727817   7.8299 357.4921  1.77417929 15987"},{"OBJECT_ID":"2019-080D","OBJECT_NAME":"ARIANE 5 DEB (SYLDA)","NORAD_CAT_ID":"44803","OBJECT_TYPE":"DEBRIS","PERIOD":"525.843","INCLINATION":"5.1249","ECCENTRICITY":"0.69344170","MEAN_MOTION":"2.73846200","TLE_LINE1":"1 44803U 19080D   21271.24854752  .00041691  00000-0  67868-2 0  9995","TLE_LINE2":"2 44803   5.1249 259.4316 6934417  80.4029 345.7747  2.73846200 16791"},{"OBJECT_ID":"2014-055CD","OBJECT_NAME":"ATLAS 5 CENTAUR DEB","NORAD_CAT_ID":"44845","OBJECT_TYPE":"DEBRIS","PERIOD":"778.707","INCLINATION":"21.3570","ECCENTRICITY":"0.50343140","MEAN_MOTION":"1.84922038","TLE_LINE1":"1 44845U 14055CD  21271.96037847 -.00000170  00000-0  00000+0 0  9995","TLE_LINE2":"2 44845  21.3570 301.8635 5034314 245.2219  55.0635  1.84922038 12550"},{"OBJECT_ID":"2014-055CE","OBJECT_NAME":"ATLAS 5 CENTAUR DEB","NORAD_CAT_ID":"44846","OBJECT_TYPE":"DEBRIS","PERIOD":"699.599","INCLINATION":"21.4366","ECCENTRICITY":"0.55230990","MEAN_MOTION":"2.05832111","TLE_LINE1":"1 44846U 14055CE  21271.29100680  .00000084  00000-0  00000+0 0  9991","TLE_LINE2":"2 44846  21.4366 254.9800 5523099 339.3977   4.9181  2.05832111 15701"},{"OBJECT_ID":"2014-055CG","OBJECT_NAME":"ATLAS 5 CENTAUR DEB","NORAD_CAT_ID":"44848","OBJECT_TYPE":"DEBRIS","PERIOD":"763.553","INCLINATION":"21.3572","ECCENTRICITY":"0.49961140","MEAN_MOTION":"1.88592041","TLE_LINE1":"1 44848U 14055CG  21270.22621702 -.00000151  00000-0  00000-0 0  9995","TLE_LINE2":"2 44848  21.3572 297.6571 4996114 253.8301  47.3206  1.88592041 14749"},{"OBJECT_ID":"2010-041AK","OBJECT_NAME":"SL-12 DEB","NORAD_CAT_ID":"44870","OBJECT_TYPE":"DEBRIS","PERIOD":"326.318","INCLINATION":"65.5487","ECCENTRICITY":"0.57063250","MEAN_MOTION":"4.41287360","TLE_LINE1":"1 44870U 10041AK  21250.31711427  .00002426  00000-0  14813-2 0  9998","TLE_LINE2":"2 44870  65.5487   4.6913 5706325 351.4509   1.8964  4.41287360 32275"},{"OBJECT_ID":"2010-041AL","OBJECT_NAME":"SL-12 DEB","NORAD_CAT_ID":"44871","OBJECT_TYPE":"DEBRIS","PERIOD":"343.012","INCLINATION":"65.4799","ECCENTRICITY":"0.56762410","MEAN_MOTION":"4.19810197","TLE_LINE1":"1 44871U 10041AL  21270.32318993 -.00000031  00000-0  28933-3 0  9993","TLE_LINE2":"2 44871  65.4799  26.7697 5676241 358.4181   0.3335  4.19810197 31338"},{"OBJECT_ID":"2010-041AM","OBJECT_NAME":"SL-12 DEB","NORAD_CAT_ID":"44872","OBJECT_TYPE":"DEBRIS","PERIOD":"308.174","INCLINATION":"64.7280","ECCENTRICITY":"0.55833400","MEAN_MOTION":"4.67268039","TLE_LINE1":"1 44872U 10041AM  21267.19628953  .00027828  00000-0  56077-2 0  9996","TLE_LINE2":"2 44872  64.7280 334.0317 5583340   3.5200 359.2503  4.67268039 33449"},{"OBJECT_ID":"2014-055CJ","OBJECT_NAME":"ATLAS 5 CENTAUR DEB","NORAD_CAT_ID":"44893","OBJECT_TYPE":"DEBRIS","PERIOD":"764.763","INCLINATION":"21.4216","ECCENTRICITY":"0.48968800","MEAN_MOTION":"1.88293546","TLE_LINE1":"1 44893U 14055CJ  21272.10678804 -.00000162  00000-0  00000+0 0  9990","TLE_LINE2":"2 44893  21.4216 302.5039 4896880 245.9501  56.0862  1.88293546 12801"}]